NORAD_CAT_ID,OBJECT_NAME,OBJECT_TYPE,EPOCH,MEAN_MOTION,ECCENTRICITY,INCLINATION,RA_OF_ASC_NODE,ARG_OF_PERICENTER,MEAN_ANOMALY,BSTAR,MEAN_MOTION_DOT,MEAN_MOTION_DDOT,TLE_LINE0,TLE_LINE1,TLE_LINE2,SEMIMAJOR_AXIS,PERIOD,APOGEE,PERIGEE,DECAYED
52453.0,STARLINK-3872,PAYLOAD,2023-04-05 12:33:57,15.08832355,0.0001458,53.2144,188.7959,48.0324,312.0792,0.00015978,2.255e-05,0.0,0 STARLINK-3872,1 52453U 22049C   23095.52357721  .00002255  00000-0  15978-3 0  9994,2 52453  53.2144 188.7959 0001458  48.0324 312.0792 15.08832355 50702,6917.904,95.438,540.777,538.76,0.0
52453.0,STARLINK-3872,PAYLOAD,2023-04-06 12:24:43,15.08862068,0.0001456,53.2143,184.3335,91.4471,268.6688,-0.00022018,-3.793e-05,0.0,0 STARLINK-3872,1 52453U 22049C   23096.51716608 -.00003793  00000-0 -22018-3 0  9990,2 52453  53.2143 184.3335 0001456  91.4471 268.6688 15.08862068 51013,6917.813,95.436,540.685,538.671,0.0
52453.0,STARLINK-3872,PAYLOAD,2023-04-07 05:53:58,15.08826941,0.0001157,53.2142,181.063,80.9621,279.1502,0.00011301,1.511e-05,0.0,0 STARLINK-3872,1 52453U 22049C   23097.24581569  .00001511  00000-0  11301-3 0  9994,2 52453  53.2142 181.0630 0001157  80.9621 279.1502 15.08826941 51126,6917.92,95.438,540.586,538.985,0.0
52453.0,STARLINK-3872,PAYLOAD,2023-04-07 10:40:07,15.08839064,0.0001187,53.2145,180.1706,77.8977,282.2149,2.6495e-05,1.34e-06,0.0,0 STARLINK-3872,1 52453U 22049C   23097.44453286  .00000134  00000-0  26495-4 0  9991,2 52453  53.2145 180.1706 0001187  77.8977 282.2149 15.08839064 51150,6917.883,95.438,540.569,538.927,0.0
52453.0,STARLINK-3872,PAYLOAD,2023-04-08 10:30:55,15.08823037,9.82e-05,53.2144,175.7096,93.7048,266.4056,0.00024325,3.584e-05,0.0,0 STARLINK-3872,1 52453U 22049C   23098.43813747  .00003584  00000-0  24325-3 0  9994,2 52453  53.2144 175.7096 0000982  93.7048 266.4056 15.08823037 51300,6917.932,95.439,540.477,539.118,0.0
52453.0,STARLINK-3872,PAYLOAD,2023-04-08 21:38:36,15.088444,0.000107,53.2146,173.629,102.4822,257.629,-1.5132e-05,-5.29e-06,0.0,0 STARLINK-3872,1 52453U 22049C   23098.90180973 -.00000529  00000-0 -15132-4 0  9999,2 52453  53.2146 173.6290 0001070 102.4822 257.6290 15.08844400 51378,6917.867,95.437,540.472,538.992,0.0
52453.0,STARLINK-3872,PAYLOAD,2023-04-09 10:21:42,15.08833831,0.0001115,53.2143,171.2502,87.9696,272.1423,-9.3395e-05,-1.774e-05,0.0,0 STARLINK-3872,1 52453U 22049C   23099.43174097 -.00001774  00000-0 -93395-4 0  9998,2 52453  53.2143 171.2502 0001115  87.9696 272.1423 15.08833831 51456,6917.899,95.438,540.536,538.993,0.0
52453.0,STARLINK-3872,PAYLOAD,2023-04-09 13:32:28,15.08835197,0.0001106,53.2155,170.654,87.6866,272.4253,-4.0343e-05,-9.3e-06,0.0,0 STARLINK-3872,1 52453U 22049C   23099.56421918 -.00000930  00000-0 -40343-4 0  9997,2 52453  53.2155 170.6540 0001106  87.6866 272.4253 15.08835197 51316,6917.895,95.438,540.525,538.995,0.0
52453.0,STARLINK-3872,PAYLOAD,2023-04-09 21:29:24,15.08835427,0.0001085,53.2147,169.1681,79.905,280.2065,4.2681e-05,3.91e-06,0.0,0 STARLINK-3872,1 52453U 22049C   23099.89541800  .00000391  00000-0  42681-4 0  9992,2 52453  53.2147 169.1681 0001085  79.9050 280.2065 15.08835427 51360,6917.894,95.438,540.51,539.009,0.0
52453.0,STARLINK-3872,PAYLOAD,2023-04-10 03:50:56,15.08838352,0.0001039,53.2149,167.9783,79.3591,280.7518,2.9176e-05,1.77e-06,0.0,0 STARLINK-3872,1 52453U 22049C   23100.16037758  .00000177  00000-0  29176-4 0  9993,2 52453  53.2149 167.9783 0001039  79.3591 280.7518 15.08838352 51564,6917.885,95.438,540.469,539.032,0.0
52453.0,STARLINK-3872,PAYLOAD,2023-04-10 13:23:15,15.08839747,0.0001066,53.2151,166.1947,77.6448,282.4663,0.0001188,1.603e-05,0.0,0 STARLINK-3872,1 52453U 22049C   23100.55781391  .00001603  00000-0  11880-3 0  9992,2 52453  53.2151 166.1947 0001066  77.6448 282.4663 15.08839747 51460,6917.881,95.438,540.484,539.009,0.0
52453.0,STARLINK-3872,PAYLOAD,2023-04-10 21:20:10,15.08845459,0.0001049,53.2154,164.7085,89.9618,270.1495,-5.7425e-06,-3.79e-06,0.0,0 STARLINK-3872,1 52453U 22049C   23100.88901274 -.00000379  00000-0 -57425-5 0  9990,2 52453  53.2154 164.7085 0001049  89.9618 270.1495 15.08845459 51516,6917.864,95.437,540.454,539.003,0.0
52453.0,STARLINK-3872,PAYLOAD,2023-04-11 05:17:06,15.088509,0.0001465,53.2152,163.221,71.8595,288.2556,-0.00010154,-1.904e-05,0.0,0 STARLINK-3872,1 52453U 22049C   23101.22021400 -.00001904  00000-0 -10154-3 0  9994,2 52453  53.2152 163.2210 0001465  71.8595 288.2556 15.08850900 51722,6917.847,95.437,540.726,538.699,0.0
52453.0,STARLINK-3872,PAYLOAD,2023-04-11 11:38:38,15.08844092,0.0001199,53.2151,162.0305,79.4569,280.6558,0.00011884,1.604e-05,0.0,0 STARLINK-3872,1 52453U 22049C   23101.48517120  .00001604  00000-0  11884-3 0  9997,2 52453  53.2151 162.0305 0001199  79.4569 280.6558 15.08844092 51602,6917.868,95.437,540.562,538.903,0.0
52453.0,STARLINK-3872,PAYLOAD,2023-04-11 21:10:58,15.08839229,0.0001216,53.2152,160.2471,71.8324,288.2801,3.8711e-05,3.28e-06,0.0,0 STARLINK-3872,1 52453U 22049C   23101.88261649  .00000328  00000-0  38711-4 0  9994,2 52453  53.2152 160.2471 0001216  71.8324 288.2801 15.08839229 51669,6917.883,95.438,540.589,538.907,0.0
52453.0,STARLINK-3872,PAYLOAD,2023-04-12 09:54:03,15.08830242,0.0001214,53.2145,157.8671,84.1702,275.9429,-4.7731e-05,-1.047e-05,0.0,0 STARLINK-3872,1 52453U 22049C   23102.41254553 -.00001047  00000-0 -47731-4 0  9993,2 52453  53.2145 157.8671 0001214  84.1702 275.9429 15.08830242 51902,6917.91,95.438,540.615,538.935,0.0
52453.0,STARLINK-3872,PAYLOAD,2023-04-12 13:04:49,15.08837302,0.000121,53.2159,157.2706,86.0079,274.1051,-6.8209e-05,-1.373e-05,0.0,0 STARLINK-3872,1 52453U 22049C   23102.54502223 -.00001373  00000-0 -68209-4 0  9992,2 52453  53.2159 157.2706 0001210  86.0079 274.1051 15.08837302 51764,6917.889,95.438,540.591,538.917,0.0
52453.0,STARLINK-3872,PAYLOAD,2023-04-13 09:44:49,15.08844292,0.0001214,53.2153,153.4069,81.0732,279.0398,5.7714e-05,6.31e-06,0.0,0 STARLINK-3872,1 52453U 22049C   23103.40613380  .00000631  00000-0  57714-4 0  9998,2 52453  53.2153 153.4069 0001214  81.0732 279.0398 15.08844292 51891,6917.867,95.437,540.572,538.892,0.0
52453.0,STARLINK-3872,PAYLOAD,2023-04-13 14:30:58,15.0885019,0.00014,53.2155,152.5143,88.3748,271.7405,8.5767e-05,1.078e-05,0.0,0 STARLINK-3872,1 52453U 22049C   23103.60484848  .00001078  00000-0  85767-4 0  9990,2 52453  53.2155 152.5143 0001400  88.3748 271.7405 15.08850190 52084,6917.849,95.437,540.683,538.746,0.0
52453.0,STARLINK-3872,PAYLOAD,2023-04-14 09:35:37,15.0883883,0.0001373,53.2144,148.9477,73.9827,286.1316,5.4441e-05,5.79e-06,0.0,0 STARLINK-3872,1 52453U 22049C   23104.39973897  .00000579  00000-0  54441-4 0  9994,2 52453  53.2144 148.9477 0001373  73.9827 286.1316 15.08838830 52042,6917.884,95.438,540.699,538.799,0.0
52453.0,STARLINK-3872,PAYLOAD,2023-04-15 09:26:24,15.08844032,0.0001281,53.2143,144.485,87.2738,272.8401,2.0202e-05,3.4e-07,0.0,0 STARLINK-3872,1 52453U 22049C   23105.39333669  .00000034  00000-0  20202-4 0  9996,2 52453  53.2143 144.4850 0001281  87.2738 272.8401 15.08844032 52198,6917.868,95.437,540.619,538.847,0.0
52453.0,STARLINK-3872,PAYLOAD,2023-04-15 18:58:43,15.0884106,0.0001231,53.214,142.7002,101.5236,258.5894,-3.6303e-05,-8.66e-06,0.0,0 STARLINK-3872,1 52453U 22049C   23105.79077903 -.00000866  00000-0 -36303-4 0  9990,2 52453  53.2140 142.7002 0001231 101.5236 258.5894 15.08841060 52413,6917.877,95.437,540.594,538.891,0.0
52453.0,STARLINK-3872,PAYLOAD,2023-04-16 02:55:40,15.08816398,0.0001443,53.2149,141.2137,104.2012,255.914,0.00015495,2.177e-05,0.0,0 STARLINK-3872,1 52453U 22049C   23106.12199240  .00002177  00000-0  15495-3 0  9990,2 52453  53.2149 141.2137 0001443 104.2012 255.9140 15.08816398 52468,6917.953,95.439,540.816,538.819,0.0
52453.0,STARLINK-3872,PAYLOAD,2023-04-16 07:41:49,15.08804922,0.0001403,53.2159,140.3224,106.4751,253.6395,0.00037664,5.706e-05,0.0,0 STARLINK-3872,1 52453U 22049C   23106.32071467  .00005706  00000-0  37664-3 0  9995,2 52453  53.2159 140.3224 0001403 106.4751 253.6395 15.08804922 52339,6917.988,95.44,540.823,538.882,0.0
52453.0,STARLINK-3872,PAYLOAD,2023-04-16 18:49:30,15.08834804,0.0001637,53.2161,138.2412,109.0416,251.0753,1.1213e-05,-1.1e-06,0.0,0 STARLINK-3872,1 52453U 22049C   23106.78438583 -.00000110  00000-0  11213-4 0  9999,2 52453  53.2161 138.2412 0001637 109.0416 251.0753 15.08834804 52560,6917.896,95.438,540.894,538.629,0.0
52453.0,STARLINK-3872,PAYLOAD,2023-04-17 07:32:36,15.08835195,0.0001634,53.2163,135.8617,111.1045,249.0122,3.7795e-05,3.13e-06,0.0,0 STARLINK-3872,1 52453U 22049C   23107.31430632  .00000313  00000-0  37795-4 0  9993,2 52453  53.2163 135.8617 0001634 111.1045 249.0122 15.08835195 52483,6917.895,95.438,540.89,538.63,0.0
52453.0,STARLINK-3872,PAYLOAD,2023-04-17 18:40:17,15.08836651,0.0001506,53.2167,133.781,106.6952,253.4205,7.5361e-05,9.11e-06,0.0,0 STARLINK-3872,1 52453U 22049C   23107.77798567  .00000911  00000-0  75361-4 0  9992,2 52453  53.2167 133.7810 0001506 106.6952 253.4205 15.08836651 52550,6917.891,95.438,540.797,538.714,0.0
52453.0,STARLINK-3872,PAYLOAD,2023-04-18 08:58:46,15.08838644,0.0001449,53.2165,131.1037,106.8692,253.2459,8.6971e-05,1.096e-05,0.0,0 STARLINK-3872,1 52453U 22049C   23108.37414595  .00001096  00000-0  86971-4 0  9999,2 52453  53.2165 131.1037 0001449 106.8692 253.2459 15.08838644 52643,6917.885,95.438,540.752,538.747,0.0
52453.0,STARLINK-3872,PAYLOAD,2023-04-19 10:24:56,15.08843956,0.0001326,53.2157,126.3444,94.9714,265.1429,7.0456e-05,8.34e-06,0.0,0 STARLINK-3872,1 52453U 22049C   23109.43398413  .00000834  00000-0  70456-4 0  9997,2 52453  53.2157 126.3444 0001326  94.9714 265.1429 15.08843956 52807,6917.868,95.437,540.651,538.816,0.0
52453.0,STARLINK-3872,PAYLOAD,2023-04-19 18:21:52,15.08841813,0.0001388,53.2157,124.8576,87.6588,272.4563,4.0921e-05,3.63e-06,0.0,0 STARLINK-3872,1 52453U 22049C   23109.76518617  .00000363  00000-0  40921-4 0  9994,2 52453  53.2157 124.8576 0001388  87.6588 272.4563 15.08841813 52857,6917.875,95.437,540.7,538.78,0.0
